[{"OBJECT_NAME":"STARLINK-3547","OBJECT_ID":"2022-022AP","EPOCH":"2026-03-09T22:42:59.868864","MEAN_MOTION":15.08839838,"ECCENTRICITY":0.00013817,"INCLINATION":53.2184,"RA_OF_ASC_NODE":357.9683,"ARG_OF_PERICENTER":96.0513,"MEAN_ANOMALY":264.0637,"EPHEMERIS_TYPE":0,"CLASSIFICATION_TYPE":"U","NORAD_CAT_ID":51889,"ELEMENT_SET_NO":999,"REV_AT_EPOCH":22328,"BSTAR":-1.74758e-6,"MEAN_MOTION_DOT":-3.16e-6,"MEAN_MOTION_DDOT":0},{"OBJECT_NAME":"USA 40 R\/B DEB","OBJECT_ID":"1989-061BL","EPOCH":"2026-03-08T18:14:08.922336","MEAN_MOTION":10.32541686,"ECCENTRICITY":0.22838925,"INCLINATION":56.9874,"RA_OF_ASC_NODE":200.6595,"ARG_OF_PERICENTER":164.6797,"MEAN_ANOMALY":203.6986,"EPHEMERIS_TYPE":0,"CLASSIFICATION_TYPE":"U","NORAD_CAT_ID":23388,"ELEMENT_SET_NO":999,"REV_AT_EPOCH":7306,"BSTAR":0.026272074,"MEAN_MOTION_DOT":0.00054893,"MEAN_MOTION_DDOT":0}]
